2026-106C               
1 69099U 26106C   26135.82925339  .00000503  00000+0  34035-4 0  9992
2 69099  97.5086 218.5071 0012917 274.2037  85.7716 15.10839506   102
2026-106D               
1 69100U 26106D   26135.89543416  .00000498  00000+0  33645-4 0  9993
2 69100  97.5062 218.5717 0012136 280.2995  79.6866 15.10959134   118
2026-106E               
1 69101U 26106E   26135.82908956  .00000497  00000+0  33338-4 0  9999
2 69101  97.5067 218.5063 0013929 282.6221  77.3451 15.11230034   103
DRAGON CRS-34           
1 69103U 26107A   26143.48718465  .00006763  00000+0  12930-3 0  9993
2 69103  51.6326  62.3775 0007523  89.6569 270.5281 15.49328337568036
SMILE                   
1 69123U 26109A   26143.48612764 -.00027387  00000+0 -60850-2 0  9992
2 69123  70.0000 232.0288 0009478 260.5638  99.4429 14.57054245   636
