CCSDS_OMM_VERS = 2.0
CREATION_DATE  = 
ORIGINATOR     = 

OBJECT_NAME    = 2026-106C
OBJECT_ID      = 2026-106C
CENTER_NAME    = EARTH
REF_FRAME      = TEME
TIME_SYSTEM    = UTC
MEAN_ELEMENT_THEORY = SGP/SGP4

EPOCH          = 2026-05-15T19:54:07.492896
MEAN_MOTION    = 15.10839506
ECCENTRICITY   = .00129178
INCLINATION    = 97.5086
RA_OF_ASC_NODE = 218.5071
ARG_OF_PERICENTER = 274.2037
MEAN_ANOMALY   = 85.7716

EPHEMERIS_TYPE = 0
CLASSIFICATION_TYPE = U
NORAD_CAT_ID   = 69099
ELEMENT_SET_NO = 999
REV_AT_EPOCH   = 10
BSTAR          = .34034547E-4
MEAN_MOTION_DOT = .503E-5
MEAN_MOTION_DDOT = 0

CCSDS_OMM_VERS = 2.0
CREATION_DATE  = 
ORIGINATOR     = 

OBJECT_NAME    = 2026-106D
OBJECT_ID      = 2026-106D
CENTER_NAME    = EARTH
REF_FRAME      = TEME
TIME_SYSTEM    = UTC
MEAN_ELEMENT_THEORY = SGP/SGP4

EPOCH          = 2026-05-15T21:29:25.511424
MEAN_MOTION    = 15.10959134
ECCENTRICITY   = .00121361
INCLINATION    = 97.5062
RA_OF_ASC_NODE = 218.5717
ARG_OF_PERICENTER = 280.2995
MEAN_ANOMALY   = 79.6866

EPHEMERIS_TYPE = 0
CLASSIFICATION_TYPE = U
NORAD_CAT_ID   = 69100
ELEMENT_SET_NO = 999
REV_AT_EPOCH   = 11
BSTAR          = .33645234E-4
MEAN_MOTION_DOT = .498E-5
MEAN_MOTION_DDOT = 0

CCSDS_OMM_VERS = 2.0
CREATION_DATE  = 
ORIGINATOR     = 

OBJECT_NAME    = 2026-106E
OBJECT_ID      = 2026-106E
CENTER_NAME    = EARTH
REF_FRAME      = TEME
TIME_SYSTEM    = UTC
MEAN_ELEMENT_THEORY = SGP/SGP4

EPOCH          = 2026-05-15T19:53:53.337984
MEAN_MOTION    = 15.11230034
ECCENTRICITY   = .00139295
INCLINATION    = 97.5067
RA_OF_ASC_NODE = 218.5063
ARG_OF_PERICENTER = 282.6221
MEAN_ANOMALY   = 77.3451

EPHEMERIS_TYPE = 0
CLASSIFICATION_TYPE = U
NORAD_CAT_ID   = 69101
ELEMENT_SET_NO = 999
REV_AT_EPOCH   = 10
BSTAR          = .33337949E-4
MEAN_MOTION_DOT = .497E-5
MEAN_MOTION_DDOT = 0

CCSDS_OMM_VERS = 2.0
CREATION_DATE  = 
ORIGINATOR     = 

OBJECT_NAME    = DRAGON CRS-34
OBJECT_ID      = 2026-107A
CENTER_NAME    = EARTH
REF_FRAME      = TEME
TIME_SYSTEM    = UTC
MEAN_ELEMENT_THEORY = SGP/SGP4

EPOCH          = 2026-05-23T11:41:32.753760
MEAN_MOTION    = 15.49328337
ECCENTRICITY   = .0007523
INCLINATION    = 51.6326
RA_OF_ASC_NODE = 62.3775
ARG_OF_PERICENTER = 89.6569
MEAN_ANOMALY   = 270.5281

EPHEMERIS_TYPE = 0
CLASSIFICATION_TYPE = U
NORAD_CAT_ID   = 69103
ELEMENT_SET_NO = 999
REV_AT_EPOCH   = 56803
BSTAR          = .1293E-3
MEAN_MOTION_DOT = .6763E-4
MEAN_MOTION_DDOT = 0

CCSDS_OMM_VERS = 2.0
CREATION_DATE  = 
ORIGINATOR     = 

OBJECT_NAME    = SMILE
OBJECT_ID      = 2026-109A
CENTER_NAME    = EARTH
REF_FRAME      = TEME
TIME_SYSTEM    = UTC
MEAN_ELEMENT_THEORY = SGP/SGP4

EPOCH          = 2026-05-23T11:40:01.428096
MEAN_MOTION    = 14.57054245
ECCENTRICITY   = .0009478
INCLINATION    = 70.0000
RA_OF_ASC_NODE = 232.0288
ARG_OF_PERICENTER = 260.5638
MEAN_ANOMALY   = 99.4429

EPHEMERIS_TYPE = 0
CLASSIFICATION_TYPE = U
NORAD_CAT_ID   = 69123
ELEMENT_SET_NO = 999
REV_AT_EPOCH   = 63
BSTAR          = -.6085E-2
MEAN_MOTION_DOT = -.27387E-3
MEAN_MOTION_DDOT = 0

